{
  "type": "FeatureCollection",
  "features": [
    {
      "type": "Feature",
      "properties": {
        "norad_id": 31195,
        "name": "FENGYUN 1C DEB",
        "group": "fengyun-1c-debris",
        "lat": -49.56478872220205,
        "lon": 26.259450493689503,
        "alt_km": 926.3889149610759,
        "timestamp": "2025-12-08T08:59:01.046691+00:00",
        "meta_object_name": "FENGYUN 1C DEB",
        "meta_object_id": "1999-025BJZ",
        "meta_epoch": "2025-12-07T19:35:03.175008",
        "meta_mean_motion": 14.07975963,
        "meta_eccentricity": 0.0171658,
        "meta_inclination": 98.7796,
        "meta_ra_of_asc_node": 15.2673,
        "meta_arg_of_pericenter": 195.0493,
        "meta_mean_anomaly": 164.5533,
        "meta_ephemeris_type": 0,
        "meta_classification_type": "U",
        "meta_norad_cat_id": 31195,
        "meta_element_set_no": 999,
        "meta_rev_at_epoch": 96029,
        "meta_bstar": 0.00034191193,
        "meta_mean_motion_dot": 6.22e-06,
        "meta_mean_motion_ddot": 0,
        "tle_line1": "1 31195U 99025BJZ 25341.81600897  .00000622  00000+0  34191-3 0  9998",
        "tle_line2": "2 31195  98.7796  15.2673 0171658 195.0493 164.5533 14.07975963960294"
      },
      "geometry": {
        "type": "Point",
        "coordinates": [
          26.259450493689503,
          -49.56478872220205
        ]
      }
    },
    {
      "type": "Feature",
      "properties": {
        "norad_id": 31196,
        "name": "FENGYUN 1C DEB",
        "group": "fengyun-1c-debris",
        "lat": -20.04456475900696,
        "lon": -1.1432043924895823,
        "alt_km": 829.347296064193,
        "timestamp": "2025-12-08T08:59:01.046702+00:00",
        "meta_object_name": "FENGYUN 1C DEB",
        "meta_object_id": "1999-025BKA",
        "meta_epoch": "2025-12-07T21:17:11.626368",
        "meta_mean_motion": 14.25440015,
        "meta_eccentricity": 0.00576996,
        "meta_inclination": 98.5268,
        "meta_ra_of_asc_node": 355.2452,
        "meta_arg_of_pericenter": 226.4406,
        "meta_mean_anomaly": 133.1975,
        "meta_ephemeris_type": 0,
        "meta_classification_type": "U",
        "meta_norad_cat_id": 31196,
        "meta_element_set_no": 999,
        "meta_rev_at_epoch": 63426,
        "meta_bstar": 0.00081422617,
        "meta_mean_motion_dot": 1.913e-05,
        "meta_mean_motion_ddot": 0,
        "tle_line1": "1 31196U 99025BKA 25341.88694012  .00001913  00000+0  81423-3 0  9992",
        "tle_line2": "2 31196  98.5268 355.2452 0057699 226.4406 133.1975 14.25440015634262"
      },
      "geometry": {
        "type": "Point",
        "coordinates": [
          -1.1432043924895823,
          -20.04456475900696
        ]
      }
    },
    {
      "type": "Feature",
      "properties": {
        "norad_id": 31198,
        "name": "FENGYUN 1C DEB",
        "group": "fengyun-1c-debris",
        "lat": 63.75486857635026,
        "lon": 68.7552764251572,
        "alt_km": 900.4019938960573,
        "timestamp": "2025-12-08T08:59:01.046712+00:00",
        "meta_object_name": "FENGYUN 1C DEB",
        "meta_object_id": "1999-025BKC",
        "meta_epoch": "2025-12-07T13:28:33.716640",
        "meta_mean_motion": 13.75519755,
        "meta_eccentricity": 0.0204097,
        "meta_inclination": 98.6128,
        "meta_ra_of_asc_node": 85.9224,
        "meta_arg_of_pericenter": 5.4622,
        "meta_mean_anomaly": 354.869,
        "meta_ephemeris_type": 0,
        "meta_classification_type": "U",
        "meta_norad_cat_id": 31198,
        "meta_element_set_no": 999,
        "meta_rev_at_epoch": 62682,
        "meta_bstar": 0.00015697807,
        "meta_mean_motion_dot": 1.38e-06,
        "meta_mean_motion_ddot": 0,
        "tle_line1": "1 31198U 99025BKC 25341.56150135  .00000138  00000+0  15698-3 0  9991",
        "tle_line2": "2 31198  98.6128  85.9224 0204097   5.4622 354.8690 13.75519755626826"
      },
      "geometry": {
        "type": "Point",
        "coordinates": [
          68.7552764251572,
          63.75486857635026
        ]
      }
    },
    {
      "type": "Feature",
      "properties": {
        "norad_id": 31199,
        "name": "FENGYUN 1C DEB",
        "group": "fengyun-1c-debris",
        "lat": 28.3100137958596,
        "lon": -39.45102043658017,
        "alt_km": 878.3372711402117,
        "timestamp": "2025-12-08T08:59:01.046722+00:00",
        "meta_object_name": "FENGYUN 1C DEB",
        "meta_object_id": "1999-025BKD",
        "meta_epoch": "2025-12-05T16:58:40.008864",
        "meta_mean_motion": 14.09979297,
        "meta_eccentricity": 0.00635718,
        "meta_inclination": 98.7162,
        "meta_ra_of_asc_node": 322.7056,
        "meta_arg_of_pericenter": 279.9042,
        "meta_mean_anomaly": 258.7122,
        "meta_ephemeris_type": 0,
        "meta_classification_type": "U",
        "meta_norad_cat_id": 31199,
        "meta_element_set_no": 999,
        "meta_rev_at_epoch": 96060,
        "meta_bstar": 0.00037158052,
        "meta_mean_motion_dot": 6.24e-06,
        "meta_mean_motion_ddot": 0,
        "tle_line1": "1 31199U 99025BKD 25339.70740751  .00000624  00000+0  37158-3 0  9999",
        "tle_line2": "2 31199  98.7162 322.7056 0063571 279.9042 258.7122 14.09979297960603"
      },
      "geometry": {
        "type": "Point",
        "coordinates": [
          -39.45102043658017,
          28.3100137958596
        ]
      }
    },
    {
      "type": "Feature",
      "properties": {
        "norad_id": 31201,
        "name": "FENGYUN 1C DEB",
        "group": "fengyun-1c-debris",
        "lat": -24.12090578619926,
        "lon": 18.991907975391907,
        "alt_km": 875.823214166453,
        "timestamp": "2025-12-08T08:59:01.046732+00:00",
        "meta_object_name": "FENGYUN 1C DEB",
        "meta_object_id": "1999-025BKF",
        "meta_epoch": "2025-12-07T13:52:24.453984",
        "meta_mean_motion": 14.35124784,
        "meta_eccentricity": 0.01429587,
        "meta_inclination": 99.0021,
        "meta_ra_of_asc_node": 202.232,
        "meta_arg_of_pericenter": 6.3402,
        "meta_mean_anomaly": 47.0646,
        "meta_ephemeris_type": 0,
        "meta_classification_type": "U",
        "meta_norad_cat_id": 31201,
        "meta_element_set_no": 999,
        "meta_rev_at_epoch": 97177,
        "meta_bstar": 0.0014672312,
        "meta_mean_motion_dot": 4.654e-05,
        "meta_mean_motion_ddot": 0,
        "tle_line1": "1 31201U 99025BKF 25341.57806081  .00004654  00000+0  14672-2 0  9992",
        "tle_line2": "2 31201  99.0021 202.2320 0142958   6.3402  47.0646 14.35124784971772"
      },
      "geometry": {
        "type": "Point",
        "coordinates": [
          18.991907975391907,
          -24.12090578619926
        ]
      }
    },
    {
      "type": "Feature",
      "properties": {
        "norad_id": 31202,
        "name": "FENGYUN 1C DEB",
        "group": "fengyun-1c-debris",
        "lat": -49.865486698706654,
        "lon": 36.251432355932344,
        "alt_km": 645.6293185712066,
        "timestamp": "2025-12-08T08:59:01.046742+00:00",
        "meta_object_name": "FENGYUN 1C DEB",
        "meta_object_id": "1999-025BKG",
        "meta_epoch": "2025-12-07T02:35:41.950752",
        "meta_mean_motion": 14.83937225,
        "meta_eccentricity": 0.00678878,
        "meta_inclination": 96.5735,
        "meta_ra_of_asc_node": 27.3465,
        "meta_arg_of_pericenter": 196.2452,
        "meta_mean_anomaly": 192.7864,
        "meta_ephemeris_type": 0,
        "meta_classification_type": "U",
        "meta_norad_cat_id": 31202,
        "meta_element_set_no": 999,
        "meta_rev_at_epoch": 99071,
        "meta_bstar": 0.0017202691,
        "meta_mean_motion_dot": 0.00014876,
        "meta_mean_motion_ddot": 0,
        "tle_line1": "1 31202U 99025BKG 25341.10812443  .00014876  00000+0  17203-2 0  9991",
        "tle_line2": "2 31202  96.5735  27.3465 0067887 196.2452 192.7864 14.83937225990714"
      },
      "geometry": {
        "type": "Point",
        "coordinates": [
          36.251432355932344,
          -49.865486698706654
        ]
      }
    },
    {
      "type": "Feature",
      "properties": {
        "norad_id": 31205,
        "name": "FENGYUN 1C DEB",
        "group": "fengyun-1c-debris",
        "lat": 71.00858538587556,
        "lon": -76.49218823272366,
        "alt_km": 830.0728635866863,
        "timestamp": "2025-12-08T08:59:01.046753+00:00",
        "meta_object_name": "FENGYUN 1C DEB",
        "meta_object_id": "1999-025BKK",
        "meta_epoch": "2025-12-07T17:17:38.582880",
        "meta_mean_motion": 14.23950701,
        "meta_eccentricity": 0.01616811,
        "meta_inclination": 99.2292,
        "meta_ra_of_asc_node": 74.6295,
        "meta_arg_of_pericenter": 211.8014,
        "meta_mean_anomaly": 147.3321,
        "meta_ephemeris_type": 0,
        "meta_classification_type": "U",
        "meta_norad_cat_id": 31205,
        "meta_element_set_no": 999,
        "meta_rev_at_epoch": 97139,
        "meta_bstar": 0.00030622125,
        "meta_mean_motion_dot": 7.53e-06,
        "meta_mean_motion_ddot": 0,
        "tle_line1": "1 31205U 99025BKK 25341.72058545  .00000753  00000+0  30622-3 0  9997",
        "tle_line2": "2 31205  99.2292  74.6295 0161681 211.8014 147.3321 14.23950701971391"
      },
      "geometry": {
        "type": "Point",
        "coordinates": [
          -76.49218823272366,
          71.00858538587556
        ]
      }
    }
  ]
}